STARLINK-35626          
1 66233U 25244AD  26068.74494058  .00026339  00000+0  89801-3 0  9991
2 66233  53.1561 229.9556 0000821  75.7174 284.3918 15.30209034 21660
KUIPER-00175            
1 67135U 25301C   26068.97960463  .00019968  00000+0  66732-3 0  9998
2 67135  51.8781  63.6978 0002279  50.5695 309.5490 15.30996371 13854
