[{"OBJECT_NAME":"STARLINK-35626","OBJECT_ID":"2025-244AD","EPOCH":"2026-03-09T17:52:42.866112","MEAN_MOTION":15.30209034,"ECCENTRICITY":8.218e-5,"INCLINATION":53.1561,"RA_OF_ASC_NODE":229.9556,"ARG_OF_PERICENTER":75.7174,"MEAN_ANOMALY":284.3918,"EPHEMERIS_TYPE":0,"CLASSIFICATION_TYPE":"U","NORAD_CAT_ID":66233,"ELEMENT_SET_NO":999,"REV_AT_EPOCH":2166,"BSTAR":0.00089800803,"MEAN_MOTION_DOT":0.00026339,"MEAN_MOTION_DDOT":0},{"OBJECT_NAME":"KUIPER-00175","OBJECT_ID":"2025-301C","EPOCH":"2026-03-09T23:30:37.840032","MEAN_MOTION":15.30996371,"ECCENTRICITY":0.00022792,"INCLINATION":51.8781,"RA_OF_ASC_NODE":63.6978,"ARG_OF_PERICENTER":50.5695,"MEAN_ANOMALY":309.549,"EPHEMERIS_TYPE":0,"CLASSIFICATION_TYPE":"U","NORAD_CAT_ID":67135,"ELEMENT_SET_NO":999,"REV_AT_EPOCH":1385,"BSTAR":0.00066732304,"MEAN_MOTION_DOT":0.00019968,"MEAN_MOTION_DDOT":0}]
